{
  "type": "FeatureCollection",
  "features": [
    {
      "type": "Feature",
      "properties": {
        "norad_id": 67046,
        "name": "STARLINK-35721",
        "group": "last-30-days",
        "lat": -10.428628574110078,
        "lon": 83.87668896214772,
        "alt_km": 377.6678921030616,
        "timestamp": "2025-12-26T23:26:40.923897+00:00",
        "meta_object_name": "STARLINK-35721",
        "meta_object_id": "2025-294S",
        "meta_epoch": "2025-12-26T18:00:02.998944",
        "meta_mean_motion": 15.64593239,
        "meta_eccentricity": 0.0001276,
        "meta_inclination": 42.9994,
        "meta_ra_of_asc_node": 96.6228,
        "meta_arg_of_pericenter": 288.0556,
        "meta_mean_anomaly": 217.8418,
        "meta_ephemeris_type": 0,
        "meta_classification_type": "U",
        "meta_norad_cat_id": 67046,
        "meta_element_set_no": 999,
        "meta_rev_at_epoch": 255,
        "meta_bstar": -0.021594,
        "meta_mean_motion_dot": -0.01900456,
        "meta_mean_motion_ddot": 0,
        "tle_line1": "1 67046U 25294S   25360.75003471 -.01900456  00000+0 -21594-1 0  9996",
        "tle_line2": "2 67046  42.9994  96.6228 0001276 288.0556 217.8418 15.64593239  2555"
      },
      "geometry": {
        "type": "Point",
        "coordinates": [
          83.87668896214772,
          -10.428628574110078
        ]
      }
    },
    {
      "type": "Feature",
      "properties": {
        "norad_id": 67047,
        "name": "STARLINK-35779",
        "group": "last-30-days",
        "lat": -8.983502824387287,
        "lon": 85.4952908688254,
        "alt_km": 377.5711359368879,
        "timestamp": "2025-12-26T23:26:40.923906+00:00",
        "meta_object_name": "STARLINK-35779",
        "meta_object_id": "2025-294T",
        "meta_epoch": "2025-12-26T18:00:02.998944",
        "meta_mean_motion": 15.6456472,
        "meta_eccentricity": 0.0001294,
        "meta_inclination": 42.9993,
        "meta_ra_of_asc_node": 96.6174,
        "meta_arg_of_pericenter": 289.8126,
        "meta_mean_anomaly": 218.2629,
        "meta_ephemeris_type": 0,
        "meta_classification_type": "U",
        "meta_norad_cat_id": 67047,
        "meta_element_set_no": 999,
        "meta_rev_at_epoch": 236,
        "meta_bstar": -0.021498,
        "meta_mean_motion_dot": -0.01891137,
        "meta_mean_motion_ddot": 0,
        "tle_line1": "1 67047U 25294T   25360.75003471 -.01891137  00000+0 -21498-1 0  9995",
        "tle_line2": "2 67047  42.9993  96.6174 0001294 289.8126 218.2629 15.64564720  2368"
      },
      "geometry": {
        "type": "Point",
        "coordinates": [
          85.4952908688254,
          -8.983502824387287
        ]
      }
    },
    {
      "type": "Feature",
      "properties": {
        "norad_id": 67048,
        "name": "STARLINK-35905",
        "group": "last-30-days",
        "lat": -7.6769631457674,
        "lon": 86.94085402580696,
        "alt_km": 377.45203674512595,
        "timestamp": "2025-12-26T23:26:40.923916+00:00",
        "meta_object_name": "STARLINK-35905",
        "meta_object_id": "2025-294U",
        "meta_epoch": "2025-12-26T18:00:02.998944",
        "meta_mean_motion": 15.6456229,
        "meta_eccentricity": 0.0001295,
        "meta_inclination": 42.9997,
        "meta_ra_of_asc_node": 96.6125,
        "meta_arg_of_pericenter": 290.1358,
        "meta_mean_anomaly": 219.8826,
        "meta_ephemeris_type": 0,
        "meta_classification_type": "U",
        "meta_norad_cat_id": 67048,
        "meta_element_set_no": 999,
        "meta_rev_at_epoch": 247,
        "meta_bstar": -0.021497,
        "meta_mean_motion_dot": -0.01890847,
        "meta_mean_motion_ddot": 0,
        "tle_line1": "1 67048U 25294U   25360.75003471 -.01890847  00000+0 -21497-1 0  9992",
        "tle_line2": "2 67048  42.9997  96.6125 0001295 290.1358 219.8826 15.64562290  2470"
      },
      "geometry": {
        "type": "Point",
        "coordinates": [
          86.94085402580696,
          -7.6769631457674
        ]
      }
    },
    {
      "type": "Feature",
      "properties": {
        "norad_id": 67049,
        "name": "STARLINK-35877",
        "group": "last-30-days",
        "lat": -6.244565963487488,
        "lon": 88.50971440437016,
        "alt_km": 377.3893563879856,
        "timestamp": "2025-12-26T23:26:40.923925+00:00",
        "meta_object_name": "STARLINK-35877",
        "meta_object_id": "2025-294V",
        "meta_epoch": "2025-12-26T18:00:02.998944",
        "meta_mean_motion": 15.64551415,
        "meta_eccentricity": 0.0001287,
        "meta_inclination": 42.9998,
        "meta_ra_of_asc_node": 96.6075,
        "meta_arg_of_pericenter": 288.6749,
        "meta_mean_anomaly": 223.4739,
        "meta_ephemeris_type": 0,
        "meta_classification_type": "U",
        "meta_norad_cat_id": 67049,
        "meta_element_set_no": 999,
        "meta_rev_at_epoch": 255,
        "meta_bstar": -0.021627,
        "meta_mean_motion_dot": -0.01900251,
        "meta_mean_motion_ddot": 0,
        "tle_line1": "1 67049U 25294V   25360.75003471 -.01900251  00000+0 -21627-1 0  9999",
        "tle_line2": "2 67049  42.9998  96.6075 0001287 288.6749 223.4739 15.64551415  2553"
      },
      "geometry": {
        "type": "Point",
        "coordinates": [
          88.50971440437016,
          -6.244565963487488
        ]
      }
    },
    {
      "type": "Feature",
      "properties": {
        "norad_id": 67050,
        "name": "STARLINK-36078",
        "group": "last-30-days",
        "lat": -4.803656215493745,
        "lon": 90.07365278184521,
        "alt_km": 377.3174893132973,
        "timestamp": "2025-12-26T23:26:40.923934+00:00",
        "meta_object_name": "STARLINK-36078",
        "meta_object_id": "2025-294W",
        "meta_epoch": "2025-12-26T18:00:02.998944",
        "meta_mean_motion": 15.64526812,
        "meta_eccentricity": 0.0001236,
        "meta_inclination": 42.9998,
        "meta_ra_of_asc_node": 96.602,
        "meta_arg_of_pericenter": 289.1407,
        "meta_mean_anomaly": 225.1522,
        "meta_ephemeris_type": 0,
        "meta_classification_type": "U",
        "meta_norad_cat_id": 67050,
        "meta_element_set_no": 999,
        "meta_rev_at_epoch": 247,
        "meta_bstar": -0.021551,
        "meta_mean_motion_dot": -0.01892657,
        "meta_mean_motion_ddot": 0,
        "tle_line1": "1 67050U 25294W   25360.75003471 -.01892657  00000+0 -21551-1 0  9997",
        "tle_line2": "2 67050  42.9998  96.6020 0001236 289.1407 225.1522 15.64526812  2479"
      },
      "geometry": {
        "type": "Point",
        "coordinates": [
          90.07365278184521,
          -4.803656215493745
        ]
      }
    },
    {
      "type": "Feature",
      "properties": {
        "norad_id": 67051,
        "name": "STARLINK-35706",
        "group": "last-30-days",
        "lat": -3.362945429815178,
        "lon": 91.62700012328821,
        "alt_km": 377.22414071312596,
        "timestamp": "2025-12-26T23:26:40.923943+00:00",
        "meta_object_name": "STARLINK-35706",
        "meta_object_id": "2025-294X",
        "meta_epoch": "2025-12-26T18:00:02.998944",
        "meta_mean_motion": 15.64508951,
        "meta_eccentricity": 0.0001266,
        "meta_inclination": 42.9999,
        "meta_ra_of_asc_node": 96.5966,
        "meta_arg_of_pericenter": 288.5242,
        "meta_mean_anomaly": 227.9025,
        "meta_ephemeris_type": 0,
        "meta_classification_type": "U",
        "meta_norad_cat_id": 67051,
        "meta_element_set_no": 999,
        "meta_rev_at_epoch": 255,
        "meta_bstar": -0.021572,
        "meta_mean_motion_dot": -0.01893083,
        "meta_mean_motion_ddot": 0,
        "tle_line1": "1 67051U 25294X   25360.75003471 -.01893083  00000+0 -21572-1 0  9995",
        "tle_line2": "2 67051  42.9999  96.5966 0001266 288.5242 227.9025 15.64508951  2553"
      },
      "geometry": {
        "type": "Point",
        "coordinates": [
          91.62700012328821,
          -3.362945429815178
        ]
      }
    },
    {
      "type": "Feature",
      "properties": {
        "norad_id": 67052,
        "name": "STARLINK-35720",
        "group": "last-30-days",
        "lat": -2.033596401495657,
        "lon": 93.05390788069246,
        "alt_km": 377.07701634256136,
        "timestamp": "2025-12-26T23:26:40.923953+00:00",
        "meta_object_name": "STARLINK-35720",
        "meta_object_id": "2025-294Y",
        "meta_epoch": "2025-12-26T18:00:02.998944",
        "meta_mean_motion": 15.64506691,
        "meta_eccentricity": 0.0001294,
        "meta_inclination": 43,
        "meta_ra_of_asc_node": 96.5918,
        "meta_arg_of_pericenter": 289.0768,
        "meta_mean_anomaly": 229.304,
        "meta_ephemeris_type": 0,
        "meta_classification_type": "U",
        "meta_norad_cat_id": 67052,
        "meta_element_set_no": 999,
        "meta_rev_at_epoch": 254,
        "meta_bstar": -0.021585,
        "meta_mean_motion_dot": -0.01893949,
        "meta_mean_motion_ddot": 0,
        "tle_line1": "1 67052U 25294Y   25360.75003471 -.01893949  00000+0 -21585-1 0  9991",
        "tle_line2": "2 67052  43.0000  96.5918 0001294 289.0768 229.3040 15.64506691  2547"
      },
      "geometry": {
        "type": "Point",
        "coordinates": [
          93.05390788069246,
          -2.033596401495657
        ]
      }
    }
  ]
}